{"type": "FeatureCollection", "features": [ {"type": "Feature", "properties": {"norad_id": 67101, "name": "STARLINK-36200", "group": "last-30-days", "lat": -69.74298111850747, "lon": 129.80698119564167, "alt_km": 347.0636849830398, "timestamp": "2025-12-26T13:39:17.668693+00:00", "meta": {"OBJECT_NAME": "STARLINK-36200", "OBJECT_ID": "2025-298AC", "EPOCH": "2025-12-26T06:00:02.999808", "MEAN_MOTION": 15.76926013, "ECCENTRICITY": 0.00035911, "INCLINATION": 69.9967, "RA_OF_ASC_NODE": 211.5027, "ARG_OF_PERICENTER": 267.6804, "MEAN_ANOMALY": 356.2917, "EPHEMERIS_TYPE": 0, "CLASSIFICATION_TYPE": "U", "NORAD_CAT_ID": 67101, "ELEMENT_SET_NO": 999, "REV_AT_EPOCH": 314, "BSTAR": -0.012469575, "MEAN_MOTION_DOT": -0.01780764, "MEAN_MOTION_DDOT": 0}, "tle": {"line1": "1 67101U 25298AC  25360.25003472 -.01780764  00000+0 -12470-1 0  9999", "line2": "2 67101  69.9967 211.5027 0003591 267.6804 356.2917 15.76926013  3143"}}, "geometry": {"type": "Point", "coordinates": [129.80698119564167, -69.74298111850747]}}, {"type": "Feature", "properties": {"norad_id": 67102, "name": "STARLINK-36255", "group": "last-30-days", "lat": 6.5004670549323365, "lon": 44.90202205044762, "alt_km": 333.6979924597035, "timestamp": "2025-12-26T13:39:17.668703+00:00", "meta": {"OBJECT_NAME": "STARLINK-36255", "OBJECT_ID": "2025-299A", "EPOCH": "2025-12-26T06:00:02.999808", "MEAN_MOTION": 15.79891976, "ECCENTRICITY": 0.00014973, "INCLINATION": 42.9971, "RA_OF_ASC_NODE": 233.8739, "ARG_OF_PERICENTER": 280.7547, "MEAN_ANOMALY": 234.2366, "EPHEMERIS_TYPE": 0, "CLASSIFICATION_TYPE": "U", "NORAD_CAT_ID": 67102, "ELEMENT_SET_NO": 999, "REV_AT_EPOCH": 298, "BSTAR": -0.010741315, "MEAN_MOTION_DOT": -0.01801743, "MEAN_MOTION_DDOT": 0}, "tle": {"line1": "1 67102U 25299A   25360.25003472 -.01801743  00000+0 -10741-1 0  9991", "line2": "2 67102  42.9971 233.8739 0001497 280.7547 234.2366 15.79891976  2986"}}, "geometry": {"type": "Point", "coordinates": [44.90202205044762, 6.5004670549323365]}}, {"type": "Feature", "properties": {"norad_id": 67103, "name": "STARLINK-36256", "group": "last-30-days", "lat": 5.5466396465632, "lon": 45.94058822585982, "alt_km": 333.5162019630361, "timestamp": "2025-12-26T13:39:17.668713+00:00", "meta": {"OBJECT_NAME": "STARLINK-36256", "OBJECT_ID": "2025-299B", "EPOCH": "2025-12-26T06:00:02.999808", "MEAN_MOTION": 15.79913704, "ECCENTRICITY": 0.00012678, "INCLINATION": 42.997, "RA_OF_ASC_NODE": 233.8707, "ARG_OF_PERICENTER": 271.9808, "MEAN_ANOMALY": 244.3929, "EPHEMERIS_TYPE": 0, "CLASSIFICATION_TYPE": "U", "NORAD_CAT_ID": 67103, "ELEMENT_SET_NO": 999, "REV_AT_EPOCH": 298, "BSTAR": -0.010745982, "MEAN_MOTION_DOT": -0.01803825, "MEAN_MOTION_DDOT": 0}, "tle": {"line1": "1 67103U 25299B   25360.25003472 -.01803825  00000+0 -10746-1 0  9990", "line2": "2 67103  42.9970 233.8707 0001267 271.9808 244.3929 15.79913704  2989"}}, "geometry": {"type": "Point", "coordinates": [45.94058822585982, 5.5466396465632]}}, {"type": "Feature", "properties": {"norad_id": 67104, "name": "STARLINK-36258", "group": "last-30-days", "lat": 4.49909347904127, "lon": 47.07464046955584, "alt_km": 333.85302109438817, "timestamp": "2025-12-26T13:39:17.668723+00:00", "meta": {"OBJECT_NAME": "STARLINK-36258", "OBJECT_ID": "2025-299C", "EPOCH": "2025-12-26T06:00:02.999808", "MEAN_MOTION": 15.79924954, "ECCENTRICITY": 0.00015045, "INCLINATION": 42.9969, "RA_OF_ASC_NODE": 233.8667, "ARG_OF_PERICENTER": 281.9428, "MEAN_ANOMALY": 235.9609, "EPHEMERIS_TYPE": 0, "CLASSIFICATION_TYPE": "U", "NORAD_CAT_ID": 67104, "ELEMENT_SET_NO": 999, "REV_AT_EPOCH": 298, "BSTAR": -0.010713334, "MEAN_MOTION_DOT": -0.01800044, "MEAN_MOTION_DDOT": 0}, "tle": {"line1": "1 67104U 25299C   25360.25003472 -.01800044  00000+0 -10713-1 0  9995", "line2": "2 67104  42.9969 233.8667 0001504 281.9428 235.9609 15.79924954  2986"}}, "geometry": {"type": "Point", "coordinates": [47.07464046955584, 4.49909347904127]}}, {"type": "Feature", "properties": {"norad_id": 67105, "name": "STARLINK-36261", "group": "last-30-days", "lat": 3.583948409552277, "lon": 48.0612449358212, "alt_km": 333.7797372860423, "timestamp": "2025-12-26T13:39:17.668735+00:00", "meta": {"OBJECT_NAME": "STARLINK-36261", "OBJECT_ID": "2025-299D", "EPOCH": "2025-12-26T06:00:02.999808", "MEAN_MOTION": 15.79948057, "ECCENTRICITY": 0.00014907, "INCLINATION": 42.9968, "RA_OF_ASC_NODE": 233.8634, "ARG_OF_PERICENTER": 277.2331, "MEAN_ANOMALY": 241.9908, "EPHEMERIS_TYPE": 0, "CLASSIFICATION_TYPE": "U", "NORAD_CAT_ID": 67105, "ELEMENT_SET_NO": 999, "REV_AT_EPOCH": 298, "BSTAR": -0.010705492, "MEAN_MOTION_DOT": -0.01800567, "MEAN_MOTION_DDOT": 0}, "tle": {"line1": "1 67105U 25299D   25360.25003472 -.01800567  00000+0 -10705-1 0  9997", "line2": "2 67105  42.9968 233.8634 0001490 277.2331 241.9908 15.79948057  2984"}}, "geometry": {"type": "Point", "coordinates": [48.0612449358212, 3.583948409552277]}}, {"type": "Feature", "properties": {"norad_id": 67106, "name": "STARLINK-36259", "group": "last-30-days", "lat": 1.2911422286387262, "lon": 50.52139529476165, "alt_km": 333.7985747520479, "timestamp": "2025-12-26T13:39:17.668745+00:00", "meta": {"OBJECT_NAME": "STARLINK-36259", "OBJECT_ID": "2025-299E", "EPOCH": "2025-12-26T06:00:02.999808", "MEAN_MOTION": 15.79971664, "ECCENTRICITY": 0.00015914, "INCLINATION": 42.9972, "RA_OF_ASC_NODE": 233.8552, "ARG_OF_PERICENTER": 269.3976, "MEAN_ANOMALY": 253.1723, "EPHEMERIS_TYPE": 0, "CLASSIFICATION_TYPE": "U", "NORAD_CAT_ID": 67106, "ELEMENT_SET_NO": 999, "REV_AT_EPOCH": 298, "BSTAR": -0.010762673, "MEAN_MOTION_DOT": -0.01810821, "MEAN_MOTION_DDOT": 0}, "tle": {"line1": "1 67106U 25299E   25360.25003472 -.01810821  00000+0 -10763-1 0  9996", "line2": "2 67106  42.9972 233.8552 0001591 269.3976 253.1723 15.79971664  2988"}}, "geometry": {"type": "Point", "coordinates": [50.52139529476165, 1.2911422286387262]}}, {"type": "Feature", "properties": {"norad_id": 67107, "name": "STARLINK-36196", "group": "last-30-days", "lat": 2.483938534953013, "lon": 49.24345768180453, "alt_km": 333.6114036491026, "timestamp": "2025-12-26T13:39:17.668755+00:00", "meta": {"OBJECT_NAME": "STARLINK-36196", "OBJECT_ID": "2025-299F", "EPOCH": "2025-12-26T06:00:02.999808", "MEAN_MOTION": 15.79961078, "ECCENTRICITY": 0.00013524, "INCLINATION": 42.9971, "RA_OF_ASC_NODE": 233.8597, "ARG_OF_PERICENTER": 266.483, "MEAN_ANOMALY": 254.3425, "EPHEMERIS_TYPE": 0, "CLASSIFICATION_TYPE": "U", "NORAD_CAT_ID": 67107, "ELEMENT_SET_NO": 999, "REV_AT_EPOCH": 298, "BSTAR": -0.010720537, "MEAN_MOTION_DOT": -0.01803621, "MEAN_MOTION_DDOT": 0}, "tle": {"line1": "1 67107U 25299F   25360.25003472 -.01803621  00000+0 -10721-1 0  9991", "line2": "2 67107  42.9971 233.8597 0001352 266.4830 254.3425 15.79961078  2989"}}, "geometry": {"type": "Point", "coordinates": [49.24345768180453, 2.483938534953013]}}, {"type": "Feature", "properties": {"norad_id": 67108, "name": "STARLINK-36208", "group": "last-30-days", "lat": 0.10351854566609141, "lon": 51.79177474194486, "alt_km": 333.8869888303889, "timestamp": "2025-12-26T13:39:17.668766+00:00", "meta": {"OBJECT_NAME": "STARLINK-36208", "OBJECT_ID": "2025-299G", "EPOCH": "2025-12-26T06:00:02.999808", "MEAN_MOTION": 15.79976838, "ECCENTRICITY": 0.00015937, "INCLINATION": 42.9972, "RA_OF_ASC_NODE": 233.8506, "ARG_OF_PERICENTER": 269.1354, "MEAN_ANOMALY": 255.1689, "EPHEMERIS_TYPE": 0, "CLASSIFICATION_TYPE": "U", "NORAD_CAT_ID": 67108, "ELEMENT_SET_NO": 999, "REV_AT_EPOCH": 298, "BSTAR": -0.010733569, "MEAN_MOTION_DOT": -0.01806911, "MEAN_MOTION_DDOT": 0}, "tle": {"line1": "1 67108U 25299G   25360.25003472 -.01806911  00000+0 -10734-1 0  9991", "line2": "2 67108  42.9972 233.8506 0001593 269.1354 255.1689 15.79976838  2980"}}, "geometry": {"type": "Point", "coordinates": [51.79177474194486, 0.10351854566609141]}}, {"type": "Feature", "properties": {"norad_id": 67109, "name": "STARLINK-35764", "group": "last-30-days", "lat": -1.165269579541536, "lon": 53.149175481858556, "alt_km": 334.02893084923926, "timestamp": "2025-12-26T13:39:17.668778+00:00", "meta": {"OBJECT_NAME": "STARLINK-35764", "OBJECT_ID": "2025-299H", "EPOCH": "2025-12-26T06:00:02.999808", "MEAN_MOTION": 15.79982817, "ECCENTRICITY": 0.00014574, "INCLINATION": 42.9972, "RA_OF_ASC_NODE": 233.846, "ARG_OF_PERICENTER": 270.1994, "MEAN_ANOMALY": 255.9599, "EPHEMERIS_TYPE": 0, "CLASSIFICATION_TYPE": "U", "NORAD_CAT_ID": 67109, "ELEMENT_SET_NO": 999, "REV_AT_EPOCH": 287, "BSTAR": -0.010764733, "MEAN_MOTION_DOT": -0.01811827, "MEAN_MOTION_DDOT": 0}, "tle": {"line1": "1 67109U 25299H   25360.25003472 -.01811827  00000+0 -10765-1 0  9998", "line2": "2 67109  42.9972 233.8460 0001457 270.1994 255.9599 15.79982817  2871"}}, "geometry": {"type": "Point", "coordinates": [53.149175481858556, -1.165269579541536]}}, {"type": "Feature", "properties": {"norad_id": 67110, "name": "STARLINK-35781", "group": "last-30-days", "lat": -3.623944732261354, "lon": 55.786777022356965, "alt_km": 334.1813369750171, "timestamp": "2025-12-26T13:39:17.668788+00:00", "meta": {"OBJECT_NAME": "STARLINK-35781", "OBJECT_ID": "2025-299J", "EPOCH": "2025-12-26T06:00:02.999808", "MEAN_MOTION": 15.7998485, "ECCENTRICITY": 0.00014478, "INCLINATION": 42.9973, "RA_OF_ASC_NODE": 233.8369, "ARG_OF_PERICENTER": 267.5943, "MEAN_ANOMALY": 262.1695, "EPHEMERIS_TYPE": 0, "CLASSIFICATION_TYPE": "U", "NORAD_CAT_ID": 67110, "ELEMENT_SET_NO": 999, "REV_AT_EPOCH": 293, "BSTAR": -0.01071162, "MEAN_MOTION_DOT": -0.01804131, "MEAN_MOTION_DDOT": 0}, "tle": {"line1": "1 67110U 25299J   25360.25003472 -.01804131  00000+0 -10712-1 0  9992", "line2": "2 67110  42.9973 233.8369 0001447 267.5943 262.1695 15.79984850  2938"}}, "geometry": {"type": "Point", "coordinates": [55.786777022356965, -3.623944732261354]}}]}